{
    "links": {
        "self": "http://www.neowsapp.com/rest/v1/neo/3827352?api_key=iIulBulltgU6a56xZRHN4H3l9WmuAYTsLGpBGhQ2"
    },
    "id": "3827352",
    "neo_reference_id": "3827352",
    "name": "(2018 RF3)",
    "designation": "2018 RF3",
    "nasa_jpl_url": "http://ssd.jpl.nasa.gov/sbdb.cgi?sstr=3827352",
    "absolute_magnitude_h": 27.0,
    "estimated_diameter": {
        "kilometers": {
            "estimated_diameter_min": 0.0105816886,
            "estimated_diameter_max": 0.023661375
        },
        "meters": {
            "estimated_diameter_min": 10.5816885933,
            "estimated_diameter_max": 23.6613750114
        },
        "miles": {
            "estimated_diameter_min": 0.0065751544,
            "estimated_diameter_max": 0.0147024923
        },
        "feet": {
            "estimated_diameter_min": 34.7168272045,
            "estimated_diameter_max": 77.6291855923
        }
    },
    "is_potentially_hazardous_asteroid": false,
    "close_approach_data": [
        {
            "close_approach_date": "2018-09-07",
            "close_approach_date_full": "2018-Sep-07 19:36",
            "epoch_date_close_approach": 1536348960000,
            "relative_velocity": {
                "kilometers_per_second": "10.3698611379",
                "kilometers_per_hour": "37331.5000965343",
                "miles_per_hour": "23196.3423794271"
            },
            "miss_distance": {
                "astronomical": "0.0073262069",
                "lunar": "2.8498944841",
                "kilometers": "1095984.947419303",
                "miles": "681013.4673122614"
            },
            "orbiting_body": "Moon"
        },
        {
            "close_approach_date": "2018-09-07",
            "close_approach_date_full": "2018-Sep-07 22:08",
            "epoch_date_close_approach": 1536358080000,
            "relative_velocity": {
                "kilometers_per_second": "9.8884267765",
                "kilometers_per_hour": "35598.3363953017",
                "miles_per_hour": "22119.4218562918"
            },
            "miss_distance": {
                "astronomical": "0.005119562",
                "lunar": "1.991509618",
                "kilometers": "765875.57053294",
                "miles": "475893.012076972"
            },
            "orbiting_body": "Earth"
        },
        {
            "close_approach_date": "2029-10-12",
            "close_approach_date_full": "2029-Oct-12 08:39",
            "epoch_date_close_approach": 1886488740000,
            "relative_velocity": {
                "kilometers_per_second": "20.8217404734",
                "kilometers_per_hour": "74958.2657043768",
                "miles_per_hour": "46576.1512650335"
            },
            "miss_distance": {
                "astronomical": "0.4737171047",
                "lunar": "184.2759537283",
                "kilometers": "70867069.845686989",
                "miles": "44034755.2833748882"
            },
            "orbiting_body": "Earth"
        }
    ],
    "orbital_data": {
        "orbit_id": "2",
        "orbit_determination_date": "2018-10-03 06:27:40",
        "first_observation_date": "2018-09-09",
        "last_observation_date": "2018-09-11",
        "data_arc_in_days": 2,
        "observations_used": 41,
        "orbit_uncertainty": "7",
        "minimum_orbit_intersection": ".00545969",
        "jupiter_tisserand_invariant": "4.437",
        "epoch_osculation": "2459000.5",
        "eccentricity": ".3403692070126187",
        "semi_major_axis": "1.505001819027792",
        "inclination": "14.41185778269209",
        "ascending_node_longitude": "345.3359661793082",
        "orbital_period": "674.3788852965796",
        "perihelion_distance": ".9927455433327534",
        "perihelion_argument": "337.16098304696",
        "aphelion_distance": "2.01725809472283",
        "perihelion_time": "2459024.045680515785",
        "mean_anomaly": "347.4307378678459",
        "mean_motion": ".5338245426258839",
        "equinox": "J2000",
        "orbit_class": {
            "orbit_class_type": "APO",
            "orbit_class_description": "Near-Earth asteroid orbits which cross the Earth’s orbit similar to that of 1862 Apollo",
            "orbit_class_range": "a (semi-major axis) > 1.0 AU; q (perihelion) < 1.017 AU"
        }
    },
    "is_sentry_object": false
}